{"fetched_at":"2026-07-23T07:05:43.411Z","source":"https://celestrak.org/NORAD/elements/gp.php?NAME=HAWK&FORMAT=JSON","constellation":"hawkeye-360","records":[{"OBJECT_NAME":"HAWK-12A","OBJECT_ID":"2025-138C","EPOCH":"2026-07-21T07:29:35.789856","CLASSIFICATION_TYPE":"U","MEAN_MOTION":15.18432886,"ECCENTRICITY":0.00145326,"INCLINATION":97.4421,"RA_OF_ASC_NODE":204.533,"ARG_OF_PERICENTER":26.7224,"MEAN_ANOMALY":333.4756,"EPHEMERIS_TYPE":0,"NORAD_CAT_ID":64623,"ELEMENT_SET_NO":999,"REV_AT_EPOCH":5904,"BSTAR":0.00014850307,"MEAN_MOTION_DOT":0.00002996,"MEAN_MOTION_DDOT":0},{"OBJECT_NAME":"HAWK-13A","OBJECT_ID":"2026-004AF","EPOCH":"2026-07-22T16:40:05.386656","CLASSIFICATION_TYPE":"U","MEAN_MOTION":15.19399999,"ECCENTRICITY":0.00049146,"INCLINATION":97.4455,"RA_OF_ASC_NODE":202.0636,"ARG_OF_PERICENTER":188.9338,"MEAN_ANOMALY":171.181,"EPHEMERIS_TYPE":0,"NORAD_CAT_ID":67392,"ELEMENT_SET_NO":999,"REV_AT_EPOCH":2915,"BSTAR":0.00018085524,"MEAN_MOTION_DOT":0.00003761,"MEAN_MOTION_DDOT":0},{"OBJECT_NAME":"HAWK-13C","OBJECT_ID":"2026-004AG","EPOCH":"2026-07-22T16:39:53.771040","CLASSIFICATION_TYPE":"U","MEAN_MOTION":15.19396589,"ECCENTRICITY":0.00047143,"INCLINATION":97.46,"RA_OF_ASC_NODE":202.5019,"ARG_OF_PERICENTER":191.9589,"MEAN_ANOMALY":168.1534,"EPHEMERIS_TYPE":0,"NORAD_CAT_ID":67393,"ELEMENT_SET_NO":999,"REV_AT_EPOCH":2915,"BSTAR":0.00018263766,"MEAN_MOTION_DOT":0.00003798,"MEAN_MOTION_DDOT":0},{"OBJECT_NAME":"HAWK-13B","OBJECT_ID":"2026-004AK","EPOCH":"2026-07-22T16:39:45.254592","CLASSIFICATION_TYPE":"U","MEAN_MOTION":15.19398704,"ECCENTRICITY":0.00059784,"INCLINATION":97.454,"RA_OF_ASC_NODE":202.3192,"ARG_OF_PERICENTER":194.1562,"MEAN_ANOMALY":165.9506,"EPHEMERIS_TYPE":0,"NORAD_CAT_ID":67396,"ELEMENT_SET_NO":999,"REV_AT_EPOCH":2915,"BSTAR":0.00018104874,"MEAN_MOTION_DOT":0.00003765,"MEAN_MOTION_DDOT":0},{"OBJECT_NAME":"HAWK-14B","OBJECT_ID":"2026-067W","EPOCH":"2026-07-22T08:11:43.098720","CLASSIFICATION_TYPE":"U","MEAN_MOTION":15.18470429,"ECCENTRICITY":0.00008125,"INCLINATION":97.4565,"RA_OF_ASC_NODE":161.2945,"ARG_OF_PERICENTER":319.1822,"MEAN_ANOMALY":40.9352,"EPHEMERIS_TYPE":0,"NORAD_CAT_ID":68436,"ELEMENT_SET_NO":999,"REV_AT_EPOCH":1727,"BSTAR":0.00018461244,"MEAN_MOTION_DOT":0.00003737,"MEAN_MOTION_DDOT":0},{"OBJECT_NAME":"HAWK-14C","OBJECT_ID":"2026-067AB","EPOCH":"2026-07-22T20:51:01.146528","CLASSIFICATION_TYPE":"U","MEAN_MOTION":15.18473713,"ECCENTRICITY":0.00017608,"INCLINATION":97.4501,"RA_OF_ASC_NODE":161.6884,"ARG_OF_PERICENTER":2.3284,"MEAN_ANOMALY":357.7958,"EPHEMERIS_TYPE":0,"NORAD_CAT_ID":68441,"ELEMENT_SET_NO":999,"REV_AT_EPOCH":1735,"BSTAR":0.00020180631,"MEAN_MOTION_DOT":0.00004092,"MEAN_MOTION_DDOT":0},{"OBJECT_NAME":"HAWK-14A","OBJECT_ID":"2026-067AJ","EPOCH":"2026-07-22T14:31:35.748768","CLASSIFICATION_TYPE":"U","MEAN_MOTION":15.18474061,"ECCENTRICITY":0.00024876,"INCLINATION":97.4627,"RA_OF_ASC_NODE":161.6867,"ARG_OF_PERICENTER":349.8208,"MEAN_ANOMALY":10.2975,"EPHEMERIS_TYPE":0,"NORAD_CAT_ID":68448,"ELEMENT_SET_NO":999,"REV_AT_EPOCH":1731,"BSTAR":0.00018754533,"MEAN_MOTION_DOT":0.00003798,"MEAN_MOTION_DDOT":0}]}
